QIANFAN-41              
1 62242U 24232F   25362.46374888  .00000084  00000+0  11140-3 0  9996
2 62242  89.0011  39.6104 0015401 140.5306 219.6970 13.50980839101372
QIANFAN-42              
1 62243U 24232G   25362.50768502  .00000365  00000+0  15116-3 0  9991
2 62243  89.0001  35.5554 0016243  40.3975 319.8420 14.24497798103611
QIANFAN-43              
1 62244U 24232H   25362.45960044  .00000083  00000+0  11035-3 0  9994
2 62244  89.0015  39.6768 0016788 145.8344 214.3891 13.50979768 69986
QIANFAN-44              
1 62245U 24232J   25362.44728389  .00000084  00000+0  11192-3 0  9993
2 62245  89.0013  39.4886 0015071 142.5353 217.6852 13.50982037101457
QIANFAN-45              
1 62246U 24232K   25362.48844367  .00000067  00000+0  85202-4 0  9998
2 62246  89.0017  39.6315 0015754 142.3430 217.8827 13.50977971101380
QIANFAN-46              
1 62247U 24232L   25362.43903814  .00000095  00000+0  12815-3 0  9997
2 62247  89.0013  39.7049 0015654 147.5376 212.6742 13.50979878101339
QIANFAN-47              
1 62248U 24232M   25362.44319284  .00000084  00000+0  11183-3 0  9996
2 62248  89.0009  39.6368 0016097 146.8860 213.3302 13.50980097101368
QIANFAN-48              
1 62249U 24232N   25362.48019037  .00000081  00000+0  10728-3 0  9995
2 62249  89.0013  39.6355 0018294 149.9585 210.2620 13.50981830101375
